NORAD_CAT_ID,OBJECT_NAME,OBJECT_TYPE,EPOCH,MEAN_MOTION,ECCENTRICITY,INCLINATION,RA_OF_ASC_NODE,ARG_OF_PERICENTER,MEAN_ANOMALY,BSTAR,MEAN_MOTION_DOT,MEAN_MOTION_DDOT,TLE_LINE0,TLE_LINE1,TLE_LINE2,SEMIMAJOR_AXIS,PERIOD,APOGEE,PERIGEE,DECAYED
51884.0,STARLINK-3577,PAYLOAD,2023-11-12 21:42:14,15.08844787,0.0001433,53.2171,204.9794,90.2673,269.8484,0.00018418,2.645e-05,0.0,0 STARLINK-3577,1 51884U 22022AJ  23316.90433202  .00002645  00000-0  18418-3 0  9994,2 51884  53.2171 204.9794 0001433  90.2673 269.8484 15.08844787 95344,6917.866,95.437,540.722,538.739,0.0
51884.0,STARLINK-3577,PAYLOAD,2023-11-13 02:28:23,15.08852791,0.0001522,53.217,204.0853,98.8152,261.3012,0.00020776,3.021e-05,0.0,0 STARLINK-3577,1 51884U 22022AJ  23317.10304697  .00003021  00000-0  20776-3 0  9991,2 51884  53.2170 204.0853 0001522  98.8152 261.3012 15.08852791 95376,6917.841,95.437,540.759,538.653,0.0
51884.0,STARLINK-3577,PAYLOAD,2023-11-13 23:08:24,15.08841237,0.0001556,53.2163,200.2211,88.5811,271.536,0.00013739,1.899e-05,0.0,0 STARLINK-3577,1 51884U 22022AJ  23317.96417397  .00001899  00000-0  13739-3 0  9999,2 51884  53.2163 200.2211 0001556  88.5811 271.5360 15.08841237 95506,6917.877,95.437,540.818,538.665,0.0
51884.0,STARLINK-3577,PAYLOAD,2023-11-14 02:19:10,15.08842704,0.0001524,53.2167,199.6254,89.6341,270.4826,0.00012903,1.766e-05,0.0,0 STARLINK-3577,1 51884U 22022AJ  23318.09665321  .00001766  00000-0  12903-3 0  9991,2 51884  53.2167 199.6254 0001524  89.6341 270.4826 15.08842704 95520,6917.872,95.437,540.791,538.683,0.0
51884.0,STARLINK-3577,PAYLOAD,2023-11-14 22:59:11,15.08841565,0.0001555,53.2168,195.7594,89.5502,270.5668,4.1301e-05,3.69e-06,0.0,0 STARLINK-3577,1 51884U 22022AJ  23318.95777317  .00000369  00000-0  41301-4 0  9998,2 51884  53.2168 195.7594 0001555  89.5502 270.5668 15.08841565 95650,6917.876,95.437,540.816,538.665,0.0
51884.0,STARLINK-3577,PAYLOAD,2023-11-15 22:49:58,15.08840613,0.0001616,53.2162,191.299,86.7022,273.4155,3.7313e-05,3.06e-06,0.0,0 STARLINK-3577,1 51884U 22022AJ  23319.95137442  .00000306  00000-0  37313-4 0  9997,2 51884  53.2162 191.2990 0001616  86.7022 273.4155 15.08840613 95802,6917.879,95.438,540.861,538.626,0.0
51884.0,STARLINK-3577,PAYLOAD,2023-11-17 00:16:08,15.08841025,0.0001565,53.2159,186.5416,84.9307,275.1864,7.4328e-05,8.95e-06,0.0,0 STARLINK-3577,1 51884U 22022AJ  23321.01121485  .00000895  00000-0  74328-4 0  9997,2 51884  53.2159 186.5416 0001565  84.9307 275.1864 15.08841025 95968,6917.877,95.437,540.825,538.66,0.0
51884.0,STARLINK-3577,PAYLOAD,2023-11-17 14:34:37,15.08835749,0.0001602,53.2159,183.8653,84.0411,276.0763,-3.5891e-06,-3.45e-06,0.0,0 STARLINK-3577,1 51884U 22022AJ  23321.60737822 -.00000345  00000-0 -35891-5 0  9995,2 51884  53.2159 183.8653 0001602  84.0411 276.0763 15.08835749 96055,6917.893,95.438,540.867,538.65,0.0
51884.0,STARLINK-3577,PAYLOAD,2023-11-17 22:31:33,15.0883544,0.000159,53.2174,182.3793,83.2778,276.8395,4.4787e-05,4.25e-06,0.0,0 STARLINK-3577,1 51884U 22022AJ  23321.93858303  .00000425  00000-0  44787-4 0  9999,2 51884  53.2174 182.3793 0001590  83.2778 276.8395 15.08835440 96107,6917.894,95.438,540.859,538.659,0.0
51884.0,STARLINK-3577,PAYLOAD,2023-11-18 08:03:52,15.08839811,0.0001592,53.2183,180.5957,83.53,276.5873,7.0714e-05,8.38e-06,0.0,0 STARLINK-3577,1 51884U 22022AJ  23322.33602063  .00000838  00000-0  70714-4 0  9991,2 51884  53.2183 180.5957 0001592  83.5300 276.5873 15.08839811 96165,6917.881,95.438,540.847,538.645,0.0
51884.0,STARLINK-3577,PAYLOAD,2023-11-18 20:46:56,15.08844911,0.0001494,53.2169,178.217,82.9182,277.198,0.00010806,1.432e-05,0.0,0 STARLINK-3577,1 51884U 22022AJ  23322.86593534  .00001432  00000-0  10806-3 0  9997,2 51884  53.2169 178.2170 0001494  82.9182 277.1980 15.08844911 96244,6917.865,95.437,540.764,538.697,0.0
51884.0,STARLINK-3577,PAYLOAD,2023-11-19 14:16:11,15.08840292,0.0001468,53.2167,174.9457,84.5211,275.5948,0.00011383,1.524e-05,0.0,0 STARLINK-3577,1 51884U 22022AJ  23323.59457706  .00001524  00000-0  11383-3 0  9991,2 51884  53.2167 174.9457 0001468  84.5211 275.5948 15.08840292 96351,6917.879,95.438,540.76,538.729,0.0
51884.0,STARLINK-3577,PAYLOAD,2023-11-19 20:37:43,15.08842704,0.0001411,53.2156,173.7554,89.0073,271.1081,0.00011882,1.604e-05,0.0,0 STARLINK-3577,1 51884U 22022AJ  23323.85953508  .00001604  00000-0  11882-3 0  9994,2 51884  53.2156 173.7554 0001411  89.0073 271.1081 15.08842704 96392,6917.872,95.437,540.713,538.761,0.0
51884.0,STARLINK-3577,PAYLOAD,2023-11-20 07:45:25,15.08843649,0.0001397,53.2151,171.6742,87.4335,272.6817,9.327e-05,1.197e-05,0.0,0 STARLINK-3577,1 51884U 22022AJ  23324.32321444  .00001197  00000-0  93270-4 0  9994,2 51884  53.2151 171.6742 0001397  87.4335 272.6817 15.08843649 96469,6917.869,95.437,540.701,538.768,0.0
51884.0,STARLINK-3577,PAYLOAD,2023-11-20 20:28:30,15.0884268,0.0001533,53.2167,169.2941,95.2587,264.858,4.7711e-05,4.71e-06,0.0,0 STARLINK-3577,1 51884U 22022AJ  23324.85313496  .00000471  00000-0  47711-4 0  9993,2 51884  53.2167 169.2941 0001533  95.2587 264.8580 15.08842680 96541,6917.872,95.437,540.798,538.677,0.0
51884.0,STARLINK-3577,PAYLOAD,2023-11-20 23:39:17,15.08842772,0.0001537,53.2166,168.6994,95.1696,264.9471,4.5179e-05,4.31e-06,0.0,0 STARLINK-3577,1 51884U 22022AJ  23324.98561434  .00000431  00000-0  45179-4 0  9996,2 51884  53.2166 168.6994 0001537  95.1696 264.9471 15.08842772 96569,6917.872,95.437,540.8,538.674,0.0
51884.0,STARLINK-3577,PAYLOAD,2023-11-21 20:19:18,15.0883627,0.0001521,53.2163,164.8334,95.4957,264.6208,-1.8674e-05,-5.85e-06,0.0,0 STARLINK-3577,1 51884U 22022AJ  23325.84674176 -.00000585  00000-0 -18674-4 0  9992,2 51884  53.2163 164.8334 0001521  95.4957 264.6208 15.08836270 96693,6917.892,95.438,540.809,538.705,0.0
51884.0,STARLINK-3577,PAYLOAD,2023-11-21 23:30:04,15.08837047,0.0001519,53.2162,164.2384,95.5423,264.5743,-1.4076e-05,-5.12e-06,0.0,0 STARLINK-3577,1 51884U 22022AJ  23325.97922127 -.00000512  00000-0 -14076-4 0  9990,2 51884  53.2162 164.2384 0001519  95.5423 264.5743 15.08837047 96716,6917.889,95.438,540.805,538.704,0.0
51884.0,STARLINK-3577,PAYLOAD,2023-11-22 18:34:41,15.08843865,0.0001471,53.2169,160.67,94.4594,265.6566,0.00010047,1.312e-05,0.0,0 STARLINK-3577,1 51884U 22022AJ  23326.77409401  .00001312  00000-0  10047-3 0  9994,2 51884  53.2169 160.6700 0001471  94.4594 265.6566 15.08843865 96832,6917.869,95.437,540.751,538.716,0.0
51884.0,STARLINK-3577,PAYLOAD,2023-11-23 18:25:29,15.08833062,0.0001285,53.2165,156.2115,93.5435,266.5704,1.4573e-05,-5.6e-07,0.0,0 STARLINK-3577,1 51884U 22022AJ  23327.76770665 -.00000056  00000-0  14573-4 0  9991,2 51884  53.2165 156.2115 0001285  93.5435 266.5704 15.08833062 96984,6917.902,95.438,540.656,538.878,0.0
51884.0,STARLINK-3577,PAYLOAD,2023-11-23 21:36:16,15.08831644,0.0001264,53.2163,155.6168,91.0515,269.0622,-5.8914e-07,-2.97e-06,0.0,0 STARLINK-3577,1 51884U 22022AJ  23327.90018856 -.00000297  00000-0 -58914-6 0  9991,2 51884  53.2163 155.6168 0001264  91.0515 269.0622 15.08831644 97007,6917.906,95.438,540.645,538.897,0.0
51884.0,STARLINK-3577,PAYLOAD,2023-11-24 11:54:44,15.08836162,0.0001295,53.2165,152.9399,91.4399,268.6742,8.7224e-06,-1.49e-06,0.0,0 STARLINK-3577,1 51884U 22022AJ  23328.49634795 -.00000149  00000-0  87224-5 0  9992,2 51884  53.2165 152.9399 0001295  91.4399 268.6742 15.08836162 97090,6917.892,95.438,540.653,538.861,0.0
51884.0,STARLINK-3577,PAYLOAD,2023-11-24 19:51:40,15.0883721,0.0001307,53.2165,151.4535,87.9227,272.1915,6.3179e-05,7.18e-06,0.0,0 STARLINK-3577,1 51884U 22022AJ  23328.82754675  .00000718  00000-0  63179-4 0  9992,2 51884  53.2165 151.4535 0001307  87.9227 272.1915 15.08837210 97143,6917.889,95.438,540.658,538.85,0.0
51884.0,STARLINK-3577,PAYLOAD,2023-11-24 21:27:03,15.08838804,0.0001338,53.2166,151.1557,92.7105,267.404,7.5323e-05,9.11e-06,0.0,0 STARLINK-3577,1 51884U 22022AJ  23328.89378532  .00000911  00000-0  75323-4 0  9992,2 51884  53.2166 151.1557 0001338  92.7105 267.4040 15.08838804 97155,6917.884,95.438,540.675,538.823,0.0
51884.0,STARLINK-3577,PAYLOAD,2023-11-25 21:17:49,15.08852072,0.0001267,53.2158,146.694,90.4958,269.6179,0.00027037,4.019e-05,0.0,0 STARLINK-3577,1 51884U 22022AJ  23329.88737527  .00004019  00000-0  27037-3 0  9996,2 51884  53.2158 146.6940 0001267  90.4958 269.6179 15.08852072 97300,6917.843,95.437,540.585,538.832,0.0
51884.0,STARLINK-3577,PAYLOAD,2023-11-26 11:36:17,15.08844233,0.0001291,53.2142,144.0174,95.4352,264.6788,8.9621e-05,1.139e-05,0.0,0 STARLINK-3577,1 51884U 22022AJ  23330.48354131  .00001139  00000-0  89621-4 0  9998,2 51884  53.2142 144.0174 0001291  95.4352 264.6788 15.08844233 97394,6917.867,95.437,540.626,538.839,0.0
51884.0,STARLINK-3577,PAYLOAD,2023-11-26 17:57:50,15.0884563,0.0001259,53.2145,142.8278,100.1546,259.9588,8.2192e-05,1.021e-05,0.0,0 STARLINK-3577,1 51884U 22022AJ  23330.74849955  .00001021  00000-0  82192-4 0  9996,2 51884  53.2145 142.8278 0001259 100.1546 259.9588 15.08845630 97433,6917.863,95.437,540.599,538.857,0.0
51884.0,STARLINK-3577,PAYLOAD,2023-11-27 14:37:51,15.08815294,0.0001146,53.2163,138.9629,116.0733,244.0377,0.00033634,5.065e-05,0.0,0 STARLINK-3577,1 51884U 22022AJ  23331.60962588  .00005065  00000-0  33634-3 0  9998,2 51884  53.2163 138.9629 0001146 116.0733 244.0377 15.08815294 97566,6917.956,95.439,540.614,539.028,0.0
51884.0,STARLINK-3577,PAYLOAD,2023-11-27 17:48:37,15.0884465,0.0001585,53.216,138.3701,61.9496,298.1657,-2.1471e-05,-6.3e-06,0.0,0 STARLINK-3577,1 51884U 22022AJ  23331.74210283 -.00000630  00000-0 -21471-4 0  9993,2 51884  53.2160 138.3701 0001585  61.9496 298.1657 15.08844650 97580,6917.866,95.437,540.828,538.635,0.0
51884.0,STARLINK-3577,PAYLOAD,2023-11-28 14:28:38,15.08842719,0.000128,53.2169,134.5025,94.9888,265.125,-9.4119e-06,-4.38e-06,0.0,0 STARLINK-3577,1 51884U 22022AJ  23332.60322125 -.00000438  00000-0 -94119-5 0  9994,2 51884  53.2169 134.5025 0001280  94.9888 265.1250 15.08842719 97711,6917.872,95.437,540.623,538.852,0.0
